<?xml version="1.0" encoding="UTF-8"?>
<seiscomp xmlns="http://geofon.gfz-potsdam.de/ns/seiscomp3-schema/0.12" version="0.12">
  <EventParameters>
    <pick publicID="Pick/20240310030921.873714.22478">
      <time>
        <value>2024-03-10T02:18:06.426522Z</value>
      </time>
      <waveformID networkCode="VE" stationCode="TURV" channelCode="HHZ"/>
      <filterID>RMHP(1)&gt;&gt;ITAPER(2)&gt;&gt;BW_HP(3,3)</filterID>
      <phaseHint>P</phaseHint>
      <evaluationMode>manual</evaluationMode>
      <creationInfo>
        <agencyID>Funvisis</agencyID>
        <author>scolv@localhost.localdomain</author>
        <creationTime>2024-03-10T03:09:21.873741Z</creationTime>
      </creationInfo>
    </pick>
    <pick publicID="Pick/20240310030921.873636.22477">
      <time>
        <value>2024-03-10T02:18:07.927464Z</value>
      </time>
      <waveformID networkCode="VE" stationCode="TURV" channelCode="HHZ"/>
      <filterID>RMHP(1)&gt;&gt;ITAPER(2)&gt;&gt;BW_HP(3,3)</filterID>
      <phaseHint>S</phaseHint>
      <evaluationMode>manual</evaluationMode>
      <creationInfo>
        <agencyID>Funvisis</agencyID>
        <author>scolv@localhost.localdomain</author>
        <creationTime>2024-03-10T03:09:21.873687Z</creationTime>
      </creationInfo>
    </pick>
    <pick publicID="Pick/20240310030921.873573.22476">
      <time>
        <value>2024-03-10T02:18:03.636729Z</value>
      </time>
      <waveformID networkCode="VE" stationCode="BENV" channelCode="HHZ"/>
      <filterID>RMHP(1)&gt;&gt;ITAPER(2)&gt;&gt;BW_HP(3,3)</filterID>
      <phaseHint>S</phaseHint>
      <evaluationMode>manual</evaluationMode>
      <creationInfo>
        <agencyID>Funvisis</agencyID>
        <author>scolv@localhost.localdomain</author>
        <creationTime>2024-03-10T03:09:21.873601Z</creationTime>
      </creationInfo>
    </pick>
    <pick publicID="Pick/20240310030921.873516.22475">
      <time>
        <value>2024-03-10T02:18:02.070529Z</value>
      </time>
      <waveformID networkCode="VE" stationCode="BENV" channelCode="HHZ"/>
      <filterID>RMHP(1)&gt;&gt;ITAPER(2)&gt;&gt;BW_HP(3,3)</filterID>
      <phaseHint>P</phaseHint>
      <evaluationMode>manual</evaluationMode>
      <creationInfo>
        <agencyID>Funvisis</agencyID>
        <author>scolv@localhost.localdomain</author>
        <creationTime>2024-03-10T03:09:21.873546Z</creationTime>
      </creationInfo>
    </pick>
    <pick publicID="Pick/20240310030921.873447.22474">
      <time>
        <value>2024-03-10T02:17:59.69875Z</value>
      </time>
      <waveformID networkCode="VE" stationCode="TACV" channelCode="HHZ"/>
      <filterID>RMHP(1)&gt;&gt;ITAPER(2)&gt;&gt;BW_HP(3,3)</filterID>
      <phaseHint>S</phaseHint>
      <evaluationMode>manual</evaluationMode>
      <creationInfo>
        <agencyID>Funvisis</agencyID>
        <author>scolv@localhost.localdomain</author>
        <creationTime>2024-03-10T03:09:21.87348Z</creationTime>
      </creationInfo>
    </pick>
    <pick publicID="Pick/20240310030921.873346.22473">
      <time>
        <value>2024-03-10T02:17:55.155487Z</value>
      </time>
      <waveformID networkCode="VE" stationCode="TACV" channelCode="HHZ"/>
      <filterID>RMHP(1)&gt;&gt;ITAPER(2)&gt;&gt;BW_HP(3,3)</filterID>
      <phaseHint>P</phaseHint>
      <evaluationMode>manual</evaluationMode>
      <creationInfo>
        <agencyID>Funvisis</agencyID>
        <author>scolv@localhost.localdomain</author>
        <creationTime>2024-03-10T03:09:21.873407Z</creationTime>
      </creationInfo>
    </pick>
    <pick publicID="Pick/20240310030921.873199.22472">
      <time>
        <value>2024-03-10T02:17:31.931351Z</value>
      </time>
      <waveformID networkCode="CU" stationCode="GRGR" locationCode="00" channelCode="BHR"/>
      <filterID>RMHP(1)&gt;&gt;ITAPER(2)&gt;&gt;BW_HP(3,3)</filterID>
      <phaseHint>S</phaseHint>
      <evaluationMode>manual</evaluationMode>
      <creationInfo>
        <agencyID>Funvisis</agencyID>
        <author>scolv@localhost.localdomain</author>
        <creationTime>2024-03-10T03:09:21.873244Z</creationTime>
      </creationInfo>
    </pick>
    <pick publicID="Pick/20240310030921.87303.22471">
      <time>
        <value>2024-03-10T02:17:12.983982Z</value>
      </time>
      <waveformID networkCode="CU" stationCode="GRGR" locationCode="00" channelCode="BHZ"/>
      <filterID>RMHP(1)&gt;&gt;ITAPER(2)&gt;&gt;BW_HP(3,3)</filterID>
      <phaseHint>P</phaseHint>
      <evaluationMode>manual</evaluationMode>
      <creationInfo>
        <agencyID>Funvisis</agencyID>
        <author>scolv@localhost.localdomain</author>
        <creationTime>2024-03-10T03:09:21.873151Z</creationTime>
      </creationInfo>
    </pick>
    <amplitude publicID="Amplitude/20240310031210.617264.22494">
      <type>MLv</type>
      <amplitude>
        <value>0.1611089696</value>
      </amplitude>
      <timeWindow>
        <reference>2024-03-10T02:20:19.94Z</reference>
        <begin>-138.51</begin>
        <end>16.49</end>
      </timeWindow>
      <snr>1.8930442</snr>
      <pickID>Pick/20240310030921.873714.22478</pickID>
      <waveformID networkCode="VE" stationCode="TURV" channelCode="HHZ"/>
      <creationInfo>
        <agencyID>Funvisis</agencyID>
        <author>scolv@localhost.localdomain</author>
        <creationTime>2024-03-10T03:12:10.617332Z</creationTime>
      </creationInfo>
    </amplitude>
    <amplitude publicID="Amplitude/20240310031210.519457.22492">
      <type>MLv</type>
      <amplitude>
        <value>0.9464419881</value>
      </amplitude>
      <timeWindow>
        <reference>2024-03-10T02:17:33.819539Z</reference>
        <begin>-25.825</begin>
        <end>63.525</end>
      </timeWindow>
      <snr>4.509398187</snr>
      <pickID>Pick/20240310030921.87303.22471</pickID>
      <waveformID networkCode="CU" stationCode="GRGR" locationCode="00" channelCode="BHZ"/>
      <creationInfo>
        <agencyID>Funvisis</agencyID>
        <author>scolv@localhost.localdomain</author>
        <creationTime>2024-03-10T03:12:10.519513Z</creationTime>
      </creationInfo>
    </amplitude>
    <amplitude publicID="Amplitude/20240310031210.589063.22493">
      <type>mb</type>
      <amplitude>
        <value>28.05728053</value>
      </amplitude>
      <timeWindow>
        <reference>2024-03-10T02:18:08.27Z</reference>
        <begin>-6.84</begin>
        <end>28.16</end>
      </timeWindow>
      <period>
        <value>1.1675</value>
      </period>
      <snr>1.269250655</snr>
      <pickID>Pick/20240310030921.873714.22478</pickID>
      <waveformID networkCode="VE" stationCode="TURV" channelCode="HHZ"/>
      <creationInfo>
        <agencyID>Funvisis</agencyID>
        <author>scolv@localhost.localdomain</author>
        <creationTime>2024-03-10T03:12:10.58912Z</creationTime>
      </creationInfo>
    </amplitude>
    <origin publicID="Origin/20240310031113.919521.22490">
      <time>
        <value>2024-03-10T02:16:45.839256Z</value>
        <uncertainty>2.381611406</uncertainty>
      </time>
      <latitude>
        <value>10.93124676</value>
        <uncertainty>30.8830635</uncertainty>
      </latitude>
      <longitude>
        <value>-62.52306366</value>
        <uncertainty>24.47977905</uncertainty>
      </longitude>
      <depth>
        <value>0</value>
        <uncertainty>0</uncertainty>
      </depth>
      <methodID>LOCSAT</methodID>
      <earthModelID>iasp91</earthModelID>
      <quality>
        <associatedPhaseCount>8</associatedPhaseCount>
        <usedPhaseCount>5</usedPhaseCount>
        <associatedStationCount>4</associatedStationCount>
        <usedStationCount>4</usedStationCount>
        <depthPhaseCount>0</depthPhaseCount>
        <standardError>0.649898139</standardError>
        <azimuthalGap>223.9555626</azimuthalGap>
        <maximumDistance>5.246108055</maximumDistance>
        <minimumDistance>1.466452003</minimumDistance>
        <medianDistance>4.498478413</medianDistance>
      </quality>
      <uncertainty>
        <minHorizontalUncertainty>6.335125446</minHorizontalUncertainty>
        <maxHorizontalUncertainty>84.28538513</maxHorizontalUncertainty>
        <azimuthMaxHorizontalUncertainty>141.6738739</azimuthMaxHorizontalUncertainty>
        <preferredDescription>horizontal uncertainty</preferredDescription>
      </uncertainty>
      <evaluationMode>manual</evaluationMode>
      <evaluationStatus>confirmed</evaluationStatus>
      <creationInfo>
        <agencyID>Funvisis</agencyID>
        <author>scolv@localhost.localdomain</author>
        <creationTime>2024-03-10T03:11:13.919638Z</creationTime>
        <modificationTime>2024-03-10T03:13:02.687849Z</modificationTime>
      </creationInfo>
      <arrival>
        <pickID>Pick/20240310030921.873714.22478</pickID>
        <phase>P</phase>
        <azimuth>265.2351685</azimuth>
        <distance>5.246108055</distance>
        <timeResidual>0.9490966797</timeResidual>
        <timeUsed>true</timeUsed>
        <horizontalSlownessUsed>false</horizontalSlownessUsed>
        <backazimuthUsed>false</backazimuthUsed>
        <weight>1</weight>
      </arrival>
      <arrival>
        <pickID>Pick/20240310030921.873636.22477</pickID>
        <phase>S</phase>
        <azimuth>265.2351685</azimuth>
        <distance>5.246108055</distance>
        <timeResidual>-59.47838211</timeResidual>
        <timeUsed>false</timeUsed>
        <horizontalSlownessUsed>false</horizontalSlownessUsed>
        <backazimuthUsed>false</backazimuthUsed>
        <weight>0</weight>
      </arrival>
      <arrival>
        <pickID>Pick/20240310030921.873573.22476</pickID>
        <phase>S</phase>
        <azimuth>259.3783875</azimuth>
        <distance>5.071753025</distance>
        <timeResidual>-59.45914841</timeResidual>
        <timeUsed>false</timeUsed>
        <horizontalSlownessUsed>false</horizontalSlownessUsed>
        <backazimuthUsed>false</backazimuthUsed>
        <weight>0</weight>
      </arrival>
      <arrival>
        <pickID>Pick/20240310030921.873516.22475</pickID>
        <phase>P</phase>
        <azimuth>259.3783875</azimuth>
        <distance>5.071753025</distance>
        <timeResidual>-1.008731842</timeResidual>
        <timeUsed>true</timeUsed>
        <horizontalSlownessUsed>false</horizontalSlownessUsed>
        <backazimuthUsed>false</backazimuthUsed>
        <weight>1</weight>
      </arrival>
      <arrival>
        <pickID>Pick/20240310030921.873447.22474</pickID>
        <phase>S</phase>
        <azimuth>260.2578735</azimuth>
        <distance>4.498478413</distance>
        <timeResidual>-49.21805191</timeResidual>
        <timeUsed>false</timeUsed>
        <horizontalSlownessUsed>false</horizontalSlownessUsed>
        <backazimuthUsed>false</backazimuthUsed>
        <weight>0</weight>
      </arrival>
      <arrival>
        <pickID>Pick/20240310030921.873346.22473</pickID>
        <phase>P</phase>
        <azimuth>260.2578735</azimuth>
        <distance>4.498478413</distance>
        <timeResidual>-0.03495788574</timeResidual>
        <timeUsed>true</timeUsed>
        <horizontalSlownessUsed>false</horizontalSlownessUsed>
        <backazimuthUsed>false</backazimuthUsed>
        <weight>1</weight>
      </arrival>
      <arrival>
        <pickID>Pick/20240310030921.873199.22472</pickID>
        <phase>S</phase>
        <azimuth>35.42282486</azimuth>
        <distance>1.466452003</distance>
        <timeResidual>-0.2591400146</timeResidual>
        <timeUsed>true</timeUsed>
        <horizontalSlownessUsed>false</horizontalSlownessUsed>
        <backazimuthUsed>false</backazimuthUsed>
        <weight>1</weight>
      </arrival>
      <arrival>
        <pickID>Pick/20240310030921.87303.22471</pickID>
        <phase>P</phase>
        <azimuth>35.42282486</azimuth>
        <distance>1.466452003</distance>
        <timeResidual>0.3537483215</timeResidual>
        <timeUsed>true</timeUsed>
        <horizontalSlownessUsed>false</horizontalSlownessUsed>
        <backazimuthUsed>false</backazimuthUsed>
        <weight>1</weight>
      </arrival>
      <stationMagnitude publicID="StationMagnitude/20240310031212.695322.22501">
        <magnitude>
          <value>4.118673847</value>
        </magnitude>
        <type>MLv</type>
        <amplitudeID>Amplitude/20240310031210.617264.22494</amplitudeID>
        <waveformID networkCode="VE" stationCode="TURV" channelCode="HHZ"/>
        <passedQC>true</passedQC>
        <creationInfo>
          <agencyID>Funvisis</agencyID>
          <author>scolv@localhost.localdomain</author>
          <creationTime>2024-03-10T03:12:12.695339Z</creationTime>
        </creationInfo>
      </stationMagnitude>
      <stationMagnitude publicID="StationMagnitude/20240310031212.695087.22500">
        <magnitude>
          <value>3.294228899</value>
        </magnitude>
        <type>MLv</type>
        <amplitudeID>Amplitude/20240310031210.519457.22492</amplitudeID>
        <waveformID networkCode="CU" stationCode="GRGR" locationCode="00" channelCode="BHZ"/>
        <passedQC>true</passedQC>
        <creationInfo>
          <agencyID>Funvisis</agencyID>
          <author>scolv@localhost.localdomain</author>
          <creationTime>2024-03-10T03:12:12.695107Z</creationTime>
        </creationInfo>
      </stationMagnitude>
      <stationMagnitude publicID="StationMagnitude/20240310031212.694724.22496">
        <magnitude>
          <value>4.162972675</value>
        </magnitude>
        <type>mb</type>
        <amplitudeID>Amplitude/20240310031210.589063.22493</amplitudeID>
        <waveformID networkCode="VE" stationCode="TURV" channelCode="HHZ"/>
        <passedQC>true</passedQC>
        <creationInfo>
          <agencyID>Funvisis</agencyID>
          <author>scolv@localhost.localdomain</author>
          <creationTime>2024-03-10T03:12:12.694755Z</creationTime>
        </creationInfo>
      </stationMagnitude>
      <magnitude publicID="Magnitude/20240310031212.694864.22499">
        <magnitude>
          <value>3.706451373</value>
          <uncertainty>0.5829706134</uncertainty>
        </magnitude>
        <type>MLv</type>
        <methodID>mean</methodID>
        <stationCount>2</stationCount>
        <evaluationStatus>confirmed</evaluationStatus>
        <creationInfo>
          <agencyID>Funvisis</agencyID>
          <author>scolv@localhost.localdomain</author>
          <creationTime>2024-03-10T03:12:12.694877Z</creationTime>
        </creationInfo>
        <stationMagnitudeContribution>
          <stationMagnitudeID>StationMagnitude/20240310031212.695322.22501</stationMagnitudeID>
          <residual>0.4122224739</residual>
          <weight>1</weight>
        </stationMagnitudeContribution>
        <stationMagnitudeContribution>
          <stationMagnitudeID>StationMagnitude/20240310031212.695087.22500</stationMagnitudeID>
          <residual>-0.4122224739</residual>
          <weight>1</weight>
        </stationMagnitudeContribution>
      </magnitude>
      <magnitude publicID="Magnitude/20240310031212.694456.22495">
        <magnitude>
          <value>4.162972675</value>
          <uncertainty>0</uncertainty>
        </magnitude>
        <type>mb</type>
        <methodID>mean</methodID>
        <stationCount>1</stationCount>
        <creationInfo>
          <agencyID>Funvisis</agencyID>
          <author>scolv@localhost.localdomain</author>
          <creationTime>2024-03-10T03:12:12.694515Z</creationTime>
        </creationInfo>
        <stationMagnitudeContribution>
          <stationMagnitudeID>StationMagnitude/20240310031212.694724.22496</stationMagnitudeID>
          <residual>0</residual>
          <weight>1</weight>
        </stationMagnitudeContribution>
      </magnitude>
    </origin>
    <event publicID="Funvisis2024ewgyc">
      <preferredOriginID>Origin/20240310031113.919521.22490</preferredOriginID>
      <preferredMagnitudeID>Magnitude/20240310031212.694864.22499</preferredMagnitudeID>
      <creationInfo>
        <agencyID>Funvisis</agencyID>
        <author>scevent@localhost.localdomain</author>
        <creationTime>2024-03-10T03:13:04.586169Z</creationTime>
      </creationInfo>
      <description>
        <text>Near Coast of Venezuela</text>
        <type>region name</type>
      </description>
      <originReference>Origin/20240310031113.919521.22490</originReference>
    </event>
  </EventParameters>
</seiscomp>
